[{"OBJECT_NAME":"STARLINK-4626","OBJECT_ID":"2022-105AP","EPOCH":"2026-03-09T15:47:46.768416","MEAN_MOTION":15.0126201,"ECCENTRICITY":0.00022731,"INCLINATION":97.6025,"RA_OF_ASC_NODE":310.1773,"ARG_OF_PERICENTER":61.7447,"MEAN_ANOMALY":298.4007,"EPHEMERIS_TYPE":0,"CLASSIFICATION_TYPE":"U","NORAD_CAT_ID":53685,"ELEMENT_SET_NO":999,"REV_AT_EPOCH":19323,"BSTAR":-4.978778e-6,"MEAN_MOTION_DOT":-1.22e-6,"MEAN_MOTION_DDOT":0},{"OBJECT_NAME":"FENGYUN 1C DEB","OBJECT_ID":"1999-025DHR","EPOCH":"2026-03-09T03:17:03.366528","MEAN_MOTION":14.93788576,"ECCENTRICITY":0.01441183,"INCLINATION":98.9629,"RA_OF_ASC_NODE":141.136,"ARG_OF_PERICENTER":297.5682,"MEAN_ANOMALY":61.0956,"EPHEMERIS_TYPE":0,"CLASSIFICATION_TYPE":"U","NORAD_CAT_ID":33728,"ELEMENT_SET_NO":999,"REV_AT_EPOCH":99589,"BSTAR":0.0005846723,"MEAN_MOTION_DOT":7.528e-5,"MEAN_MOTION_DDOT":0}]
